[{"OBJECT_NAME":"OBJECT N","OBJECT_ID":"2025-274N","EPOCH":"2026-03-09T18:30:08.486784","MEAN_MOTION":14.93734049,"ECCENTRICITY":0.00150768,"INCLINATION":97.7444,"RA_OF_ASC_NODE":359.6594,"ARG_OF_PERICENTER":356.6797,"MEAN_ANOMALY":3.432,"EPHEMERIS_TYPE":0,"CLASSIFICATION_TYPE":"U","NORAD_CAT_ID":66662,"ELEMENT_SET_NO":999,"REV_AT_EPOCH":1539,"BSTAR":0.00030653628,"MEAN_MOTION_DOT":3.195e-5,"MEAN_MOTION_DDOT":0},{"OBJECT_NAME":"FREGAT DEB","OBJECT_ID":"2011-037BA","EPOCH":"2026-03-07T21:51:11.179584","MEAN_MOTION":11.85982955,"ECCENTRICITY":0.16068404,"INCLINATION":51.4778,"RA_OF_ASC_NODE":309.8732,"ARG_OF_PERICENTER":204.2893,"MEAN_ANOMALY":147.3247,"EPHEMERIS_TYPE":0,"CLASSIFICATION_TYPE":"U","NORAD_CAT_ID":45816,"ELEMENT_SET_NO":999,"REV_AT_EPOCH":24023,"BSTAR":0.0038548869,"MEAN_MOTION_DOT":0.00018183,"MEAN_MOTION_DDOT":0}]
